start=new Date('2021-11-30T00:00:00.000Z').valueOf();
sats=[{"TLE_LINE2":"2 45562  53.0538 254.0915 0002138  71.6188 288.5034 15.06398760 90092","DECAY_DATE":null,"GP_ID":"190748472","ELEMENT_SET_NO":"999","PERIOD":"95.592","NORAD_CAT_ID":"45562","REV_AT_EPOCH":"9009","SEMIMAJOR_AXIS":"6925.352","MEAN_MOTION_DDOT":"0.0000000000000","SITE":"AFETR","RA_OF_ASC_NODE":"254.0915","COUNTRY_CODE":"US","ARG_OF_PERICENTER":"71.6188","EPOCH":"2021-11-29T17:15:10.372320","APOAPSIS":"548.698","TLE_LINE1":"1 45562U 20025AH  21333.71887005  .00000509  00000-0  53112-4 0  9999","FILE":"3227094","CENTER_NAME":"EARTH","REF_FRAME":"TEME","OBJECT_TYPE":"PAYLOAD","TIME_SYSTEM":"UTC","OBJECT_ID":"2020-025AH","BSTAR":"0.00005311200000","LAUNCH_DATE":"2020-04-22","ECCENTRICITY":"0.00021380","MEAN_MOTION_DOT":"0.00000509","CLASSIFICATION_TYPE":"U","OBJECT_NAME":"STARLINK-1354","MEAN_MOTION":"15.06398760","PERIAPSIS":"545.737","MEAN_ANOMALY":"288.5034","MEAN_ELEMENT_THEORY":"SGP4","EPHEMERIS_TYPE":"0","RCS_SIZE":"LARGE","INCLINATION":"53.0538"},{"MEAN_MOTION_DDOT":"0.0000000000000","COUNTRY_CODE":"US","RA_OF_ASC_NODE":"254.0313","SITE":"AFETR","EPOCH":"2021-11-29T17:36:23.819328","ARG_OF_PERICENTER":"73.8696","DECAY_DATE":null,"TLE_LINE2":"2 45563  53.0558 254.0313 0002210  73.8696 286.2536 15.06399790 90092","PERIOD":"95.592","GP_ID":"190747242","ELEMENT_SET_NO":"999","SEMIMAJOR_AXIS":"6925.349","REV_AT_EPOCH":"9009","NORAD_CAT_ID":"45563","OBJECT_NAME":"STARLINK-1355","MEAN_MOTION_DOT":"0.00000869","CLASSIFICATION_TYPE":"U","LAUNCH_DATE":"2020-04-22","BSTAR":"0.00007724900000","ECCENTRICITY":"0.00022100","MEAN_MOTION":"15.06399790","INCLINATION":"53.0558","RCS_SIZE":"LARGE","EPHEMERIS_TYPE":"0","MEAN_ELEMENT_THEORY":"SGP4","MEAN_ANOMALY":"286.2536","PERIAPSIS":"545.684","FILE":"3227094","TLE_LINE1":"1 45563U 20025AJ  21333.73360902  .00000869  00000-0  77249-4 0  9990","APOAPSIS":"548.745","OBJECT_TYPE":"PAYLOAD","REF_FRAME":"TEME","CENTER_NAME":"EARTH","OBJECT_ID":"2020-025AJ","TIME_SYSTEM":"UTC"},{"APOAPSIS":"548.612","TLE_LINE1":"1 45564U 20025AK  21333.92896214  .00000352  00000-0  42511-4 0  9993","FILE":"3227094","CENTER_NAME":"EARTH","OBJECT_TYPE":"PAYLOAD","REF_FRAME":"TEME","OBJECT_ID":"2020-025AK","TIME_SYSTEM":"UTC","CLASSIFICATION_TYPE":"U","MEAN_MOTION_DOT":"0.00000352","BSTAR":"0.00004251100000","LAUNCH_DATE":"2020-04-22","ECCENTRICITY":"0.00020330","OBJECT_NAME":"STARLINK-1356","MEAN_MOTION":"15.06403144","PERIAPSIS":"545.796","RCS_SIZE":"LARGE","EPHEMERIS_TYPE":"0","INCLINATION":"53.0540","MEAN_ANOMALY":"290.4453","MEAN_ELEMENT_THEORY":"SGP4","TLE_LINE2":"2 45564  53.0540 253.1428 0002033  69.6754 290.4453 15.06403144 90120","DECAY_DATE":null,"PERIOD":"95.592","GP_ID":"190747492","ELEMENT_SET_NO":"999","REV_AT_EPOCH":"9012","NORAD_CAT_ID":"45564","SEMIMAJOR_AXIS":"6925.339","MEAN_MOTION_DDOT":"0.0000000000000","SITE":"AFETR","RA_OF_ASC_NODE":"253.1428","COUNTRY_CODE":"US","ARG_OF_PERICENTER":"69.6754","EPOCH":"2021-11-29T22:17:42.328896"},{"ARG_OF_PERICENTER":"67.3920","EPOCH":"2021-11-29T22:07:05.064096","MEAN_MOTION_DDOT":"0.0000000000000","SITE":"AFETR","RA_OF_ASC_NODE":"253.1824","COUNTRY_CODE":"US","GP_ID":"190748244","ELEMENT_SET_NO":"999","PERIOD":"95.592","NORAD_CAT_ID":"45565","REV_AT_EPOCH":"9012","SEMIMAJOR_AXIS":"6925.342","TLE_LINE2":"2 45565  53.0543 253.1824 0001777  67.3920 292.7257 15.06402107 90123","DECAY_DATE":null,"MEAN_MOTION":"15.06402107","PERIAPSIS":"545.976","MEAN_ANOMALY":"292.7257","MEAN_ELEMENT_THEORY":"SGP4","INCLINATION":"53.0543","RCS_SIZE":"LARGE","EPHEMERIS_TYPE":"0","ECCENTRICITY":"0.00017770","LAUNCH_DATE":"2020-04-22","BSTAR":"0.00015444000000","MEAN_MOTION_DOT":"0.00002020","CLASSIFICATION_TYPE":"U","OBJECT_NAME":"STARLINK-1357","CENTER_NAME":"EARTH","REF_FRAME":"TEME","OBJECT_TYPE":"PAYLOAD","OBJECT_ID":"2020-025AL","TIME_SYSTEM":"UTC","APOAPSIS":"548.438","TLE_LINE1":"1 45565U 20025AL  21333.92158639  .00002020  00000-0  15444-3 0  9994","FILE":"3227094"},{"MEAN_MOTION_DDOT":"0.0000000000000","SITE":"AFETR","RA_OF_ASC_NODE":"256.3983","COUNTRY_CODE":"US","ARG_OF_PERICENTER":"63.9293","EPOCH":"2021-11-29T04:57:23.550048","TLE_LINE2":"2 45566  53.0546 256.3983 0001964  63.9293 296.1898 15.06403851 89417","DECAY_DATE":null,"GP_ID":"190690927","ELEMENT_SET_NO":"999","PERIOD":"95.592","NORAD_CAT_ID":"45566","REV_AT_EPOCH":"8941","SEMIMAJOR_AXIS":"6925.337","BSTAR":"0.00002395900000","LAUNCH_DATE":"2020-04-22","ECCENTRICITY":"0.00019640","CLASSIFICATION_TYPE":"U","MEAN_MOTION_DOT":"0.00000075","OBJECT_NAME":"STARLINK-1358","MEAN_MOTION":"15.06403851","PERIAPSIS":"545.842","MEAN_ELEMENT_THEORY":"SGP4","MEAN_ANOMALY":"296.1898","RCS_SIZE":"LARGE","INCLINATION":"53.0546","EPHEMERIS_TYPE":"0","TLE_LINE1":"1 45566U 20025AM  21333.20652257  .00000075  00000-0  23959-4 0  9990","APOAPSIS":"548.562","FILE":"3226522","CENTER_NAME":"EARTH","REF_FRAME":"TEME","OBJECT_TYPE":"PAYLOAD","TIME_SYSTEM":"UTC","OBJECT_ID":"2020-025AM"},{"SEMIMAJOR_AXIS":"6925.366","REV_AT_EPOCH":"9011","NORAD_CAT_ID":"45567","PERIOD":"95.593","GP_ID":"190747742","ELEMENT_SET_NO":"999","DECAY_DATE":null,"TLE_LINE2":"2 45567  53.0543 253.6591 0001947  62.8616 297.2572 15.06394170 90111","EPOCH":"2021-11-29T19:33:10.416960","ARG_OF_PERICENTER":"62.8616","COUNTRY_CODE":"US","RA_OF_ASC_NODE":"253.6591","SITE":"AFETR","MEAN_MOTION_DDOT":"0.0000000000000","TIME_SYSTEM":"UTC","OBJECT_ID":"2020-025AN","OBJECT_TYPE":"PAYLOAD","REF_FRAME":"TEME","CENTER_NAME":"EARTH","FILE":"3227094","APOAPSIS":"548.580","TLE_LINE1":"1 45567U 20025AN  21333.81470390  .00000037  00000-0  21421-4 0  9994","EPHEMERIS_TYPE":"0","RCS_SIZE":"LARGE","INCLINATION":"53.0543","MEAN_ELEMENT_THEORY":"SGP4","MEAN_ANOMALY":"297.2572","PERIAPSIS":"545.883","MEAN_MOTION":"15.06394170","OBJECT_NAME":"STARLINK-1361","MEAN_MOTION_DOT":"0.00000037","CLASSIFICATION_TYPE":"U","BSTAR":"0.00002142100000","LAUNCH_DATE":"2020-04-22","ECCENTRICITY":"0.00019470"},{"MEAN_MOTION_DDOT":"0.0000000000000","SITE":"AFETR","COUNTRY_CODE":"US","RA_OF_ASC_NODE":"256.3746","ARG_OF_PERICENTER":"33.1328","EPOCH":"2021-11-29T05:01:27.282720","TLE_LINE2":"2 45568  53.0471 256.3746 0022605  33.1328 327.1071 15.06389169 90017","DECAY_DATE":null,"GP_ID":"190720900","ELEMENT_SET_NO":"999","PERIOD":"95.593","NORAD_CAT_ID":"45568","REV_AT_EPOCH":"9001","SEMIMAJOR_AXIS":"6925.382","BSTAR":"-0.00089521000000","LAUNCH_DATE":"2020-04-22","ECCENTRICITY":"0.00226050","CLASSIFICATION_TYPE":"U","MEAN_MOTION_DOT":"-0.00013675","OBJECT_NAME":"STARLINK-1363","MEAN_MOTION":"15.06389169","PERIAPSIS":"531.592","MEAN_ANOMALY":"327.1071","MEAN_ELEMENT_THEORY":"SGP4","RCS_SIZE":"LARGE","EPHEMERIS_TYPE":"0","INCLINATION":"53.0471","APOAPSIS":"562.902","TLE_LINE1":"1 45568U 20025AP  21333.20934355 -.00013675  00000-0 -89521-3 0  9992","FILE":"3226898","CENTER_NAME":"EARTH","REF_FRAME":"TEME","OBJECT_TYPE":"PAYLOAD","TIME_SYSTEM":"UTC","OBJECT_ID":"2020-025AP"},{"FILE":"3227094","APOAPSIS":"548.793","TLE_LINE1":"1 45569U 20025AQ  21333.75203773  .00001405  00000-0  11325-3 0  9999","TIME_SYSTEM":"UTC","OBJECT_ID":"2020-025AQ","REF_FRAME":"TEME","OBJECT_TYPE":"PAYLOAD","CENTER_NAME":"EARTH","OBJECT_NAME":"STARLINK-1366","LAUNCH_DATE":"2020-04-22","ECCENTRICITY":"0.00022780","BSTAR":"0.00011325000000","MEAN_MOTION_DOT":"0.00001405","CLASSIFICATION_TYPE":"U","MEAN_ANOMALY":"287.9038","MEAN_ELEMENT_THEORY":"SGP4","INCLINATION":"53.0551","RCS_SIZE":"LARGE","EPHEMERIS_TYPE":"0","PERIAPSIS":"545.638","MEAN_MOTION":"15.06399439","DECAY_DATE":null,"TLE_LINE2":"2 45569  53.0551 253.9446 0002278  72.2199 287.9038 15.06399439 90096","SEMIMAJOR_AXIS":"6925.350","NORAD_CAT_ID":"45569","REV_AT_EPOCH":"9009","ELEMENT_SET_NO":"999","GP_ID":"190748744","PERIOD":"95.592","RA_OF_ASC_NODE":"253.9446","COUNTRY_CODE":"US","SITE":"AFETR","MEAN_MOTION_DDOT":"0.0000000000000","EPOCH":"2021-11-29T18:02:56.059872","ARG_OF_PERICENTER":"72.2199"},{"MEAN_MOTION":"15.06409402","RCS_SIZE":"LARGE","EPHEMERIS_TYPE":"0","INCLINATION":"53.0534","MEAN_ELEMENT_THEORY":"SGP4","MEAN_ANOMALY":"299.9939","PERIAPSIS":"545.644","OBJECT_NAME":"STARLINK-1376","MEAN_MOTION_DOT":"0.00000844","CLASSIFICATION_TYPE":"U","BSTAR":"0.00007552600000","LAUNCH_DATE":"2020-04-22","ECCENTRICITY":"0.00022250","OBJECT_TYPE":"PAYLOAD","REF_FRAME":"TEME","CENTER_NAME":"EARTH","OBJECT_ID":"2020-025AR","TIME_SYSTEM":"UTC","FILE":"3227094","TLE_LINE1":"1 45570U 20025AR  21333.81101309  .00000844  00000-0  75526-4 0  9990","APOAPSIS":"548.726","EPOCH":"2021-11-29T19:27:51.530976","ARG_OF_PERICENTER":"60.1271","MEAN_MOTION_DDOT":"0.0000000000000","RA_OF_ASC_NODE":"253.6774","COUNTRY_CODE":"US","SITE":"AFETR","PERIOD":"95.592","ELEMENT_SET_NO":"999","GP_ID":"190748473","SEMIMAJOR_AXIS":"6925.320","REV_AT_EPOCH":"9010","NORAD_CAT_ID":"45570","DECAY_DATE":null,"TLE_LINE2":"2 45570  53.0534 253.6774 0002225  60.1271 299.9939 15.06409402 90106"},{"TIME_SYSTEM":"UTC","OBJECT_ID":"2020-025AS","CENTER_NAME":"EARTH","OBJECT_TYPE":"PAYLOAD","REF_FRAME":"TEME","APOAPSIS":"548.667","TLE_LINE1":"1 45571U 20025AS  21333.76033202  .00000522  00000-0  53963-4 0  9995","FILE":"3227094","PERIAPSIS":"545.710","RCS_SIZE":"LARGE","EPHEMERIS_TYPE":"0","INCLINATION":"53.0544","MEAN_ANOMALY":"288.3124","MEAN_ELEMENT_THEORY":"SGP4","MEAN_MOTION":"15.06408155","MEAN_MOTION_DOT":"0.00000522","CLASSIFICATION_TYPE":"U","BSTAR":"0.00005396300000","LAUNCH_DATE":"2020-04-22","ECCENTRICITY":"0.00021350","OBJECT_NAME":"STARLINK-1261","REV_AT_EPOCH":"9025","NORAD_CAT_ID":"45571","SEMIMAJOR_AXIS":"6925.324","PERIOD":"95.592","GP_ID":"190747243","ELEMENT_SET_NO":"999","TLE_LINE2":"2 45571  53.0544 243.9138 0002135  71.8097 288.3124 15.06408155 90257","DECAY_DATE":null,"ARG_OF_PERICENTER":"71.8097","EPOCH":"2021-11-29T18:14:52.686528","SITE":"AFETR","RA_OF_ASC_NODE":"243.9138","COUNTRY_CODE":"US","MEAN_MOTION_DDOT":"0.0000000000000"}];
